{
  "type": "FeatureCollection",
  "features": [
    {
      "type": "Feature",
      "properties": {
        "part": 1
      },
      "geometry": {
        "type": "LineString",
        "coordinates": [
          [
            -30.0,
            0.0
          ],
          [
            -29.9,
            0.1
          ],
          [
            -29.8,
            0.2
          ],
          [
            -29.7,
            0.3
          ],
          [
            -29.6,
            0.4
          ],
          [
            -29.5,
            0.5
          ],
          [
            -29.4,
            0.6
          ],
          [
            -29.3,
            0.7
          ],
          [
            -29.2,
            0.8
          ],
          [
            -29.1,
            0.9
          ],
          [
            -29.0,
            1.0
          ],
          [
            -28.9,
            1.1
          ],
          [
            -28.8,
            1.2
          ],
          [
            -28.7,
            1.3
          ],
          [
            -28.6,
            1.4
          ],
          [
            -28.5,
            1.5
          ],
          [
            -28.4,
            1.6
          ],
          [
            -28.3,
            1.7
          ],
          [
            -28.2,
            1.8
          ],
          [
            -28.1,
            1.9
          ],
          [
            -28.0,
            2.0
          ],
          [
            -27.9,
            2.1
          ],
          [
            -27.8,
            2.2
          ],
          [
            -27.7,
            2.3
          ],
          [
            -27.6,
            2.4
          ],
          [
            -27.5,
            2.5
          ],
          [
            -27.4,
            2.6
          ],
          [
            -27.3,
            2.7
          ],
          [
            -27.2,
            2.8
          ],
          [
            -27.1,
            2.9
          ],
          [
            -27.0,
            3.0
          ],
          [
            -26.9,
            3.05
          ],
          [
            -26.8,
            3.1
          ],
          [
            -26.7,
            3.15
          ],
          [
            -26.6,
            3.2
          ],
          [
            -26.5,
            3.25
          ],
          [
            -26.4,
            3.3
          ],
          [
            -26.3,
            3.35
          ],
          [
            -26.2,
            3.4
          ],
          [
            -26.1,
            3.45
          ],
          [
            -26.0,
            3.5
          ],
          [
            -25.9,
            3.55
          ],
          [
            -25.8,
            3.6
          ],
          [
            -25.7,
            3.65
          ],
          [
            -25.6,
            3.7
          ],
          [
            -25.5,
            3.75
          ],
          [
            -25.4,
            3.8
          ],
          [
            -25.3,
            3.85
          ],
          [
            -25.2,
            3.9
          ],
          [
            -25.1,
            3.95
          ],
          [
            -25.0,
            4.0
          ],
          [
            -24.9,
            4.05
          ],
          [
            -24.8,
            4.1
          ],
          [
            -24.7,
            4.15
          ],
          [
            -24.6,
            4.2
          ],
          [
            -24.5,
            4.25
          ],
          [
            -24.4,
            4.3
          ],
          [
            -24.3,
            4.35
          ],
          [
            -24.2,
            4.4
          ],
          [
            -24.1,
            4.45
          ],
          [
            -24.0,
            4.5
          ],
          [
            -23.9,
            4.46667
          ],
          [
            -23.8,
            4.43333
          ],
          [
            -23.7,
            4.4
          ],
          [
            -23.6,
            4.36667
          ],
          [
            -23.5,
            4.33333
          ],
          [
            -23.4,
            4.3
          ],
          [
            -23.3,
            4.26667
          ],
          [
            -23.2,
            4.23333
          ],
          [
            -23.1,
            4.2
          ],
          [
            -23.0,
            4.16667
          ],
          [
            -22.9,
            4.13333
          ],
          [
            -22.8,
            4.1
          ],
          [
            -22.7,
            4.06667
          ],
          [
            -22.6,
            4.03333
          ],
          [
            -22.5,
            4.0
          ],
          [
            -22.4,
            3.96667
          ],
          [
            -22.3,
            3.93333
          ],
          [
            -22.2,
            3.9
          ],
          [
            -22.1,
            3.86667
          ],
          [
            -22.0,
            3.83333
          ],
          [
            -21.9,
            3.8
          ],
          [
            -21.8,
            3.76667
          ],
          [
            -21.7,
            3.73333
          ],
          [
            -21.6,
            3.7
          ],
          [
            -21.5,
            3.66667
          ],
          [
            -21.4,
            3.63333
          ],
          [
            -21.3,
            3.6
          ],
          [
            -21.2,
            3.56667
          ],
          [
            -21.1,
            3.53333
          ],
          [
            -21.0,
            3.5
          ],
          [
            -20.9,
            3.41667
          ],
          [
            -20.8,
            3.33333
          ],
          [
            -20.7,
            3.25
          ],
          [
            -20.6,
            3.16667
          ],
          [
            -20.5,
            3.08333
          ],
          [
            -20.4,
            3.0
          ],
          [
            -20.3,
            2.91667
          ],
          [
            -20.2,
            2.83333
          ],
          [
            -20.1,
            2.75
          ],
          [
            -20.0,
            2.66667
          ],
          [
            -19.9,
            2.58333
          ],
          [
            -19.8,
            2.5
          ],
          [
            -19.7,
            2.41667
          ],
          [
            -19.6,
            2.33333
          ],
          [
            -19.5,
            2.25
          ],
          [
            -19.4,
            2.16667
          ],
          [
            -19.3,
            2.08333
          ],
          [
            -19.2,
            2.0
          ],
          [
            -19.1,
            1.91667
          ],
          [
            -19.0,
            1.83333
          ],
          [
            -18.9,
            1.75
          ],
          [
            -18.8,
            1.66667
          ],
          [
            -18.7,
            1.58333
          ],
          [
            -18.6,
            1.5
          ],
          [
            -18.5,
            1.41667
          ],
          [
            -18.4,
            1.33333
          ],
          [
            -18.3,
            1.25
          ],
          [
            -18.2,
            1.16667
          ],
          [
            -18.1,
            1.08333
          ],
          [
            -18.0,
            1.0
          ],
          [
            -17.9,
            0.91667
          ],
          [
            -17.8,
            0.83333
          ],
          [
            -17.7,
            0.75
          ],
          [
            -17.6,
            0.66667
          ],
          [
            -17.5,
            0.58333
          ],
          [
            -17.4,
            0.5
          ],
          [
            -17.3,
            0.41667
          ],
          [
            -17.2,
            0.33333
          ],
          [
            -17.1,
            0.25
          ],
          [
            -17.0,
            0.16667
          ],
          [
            -16.9,
            0.08333
          ],
          [
            -16.8,
            0.0
          ],
          [
            -16.7,
            -0.08333
          ],
          [
            -16.6,
            -0.16667
          ],
          [
            -16.5,
            -0.25
          ],
          [
            -16.4,
            -0.33333
          ],
          [
            -16.3,
            -0.41667
          ],
          [
            -16.2,
            -0.5
          ],
          [
            -16.1,
            -0.58333
          ],
          [
            -16.0,
            -0.66667
          ],
          [
            -15.9,
            -0.75
          ],
          [
            -15.8,
            -0.83333
          ],
          [
            -15.7,
            -0.91667
          ],
          [
            -15.6,
            -1.0
          ],
          [
            -15.5,
            -1.08333
          ],
          [
            -15.4,
            -1.16667
          ],
          [
            -15.3,
            -1.25
          ],
          [
            -15.2,
            -1.33333
          ],
          [
            -15.1,
            -1.41667
          ],
          [
            -15.0,
            -1.5
          ],
          [
            -14.9,
            -1.51667
          ],
          [
            -14.8,
            -1.53333
          ],
          [
            -14.7,
            -1.55
          ],
          [
            -14.6,
            -1.56667
          ],
          [
            -14.5,
            -1.58333
          ],
          [
            -14.4,
            -1.6
          ],
          [
            -14.3,
            -1.61667
          ],
          [
            -14.2,
            -1.63333
          ],
          [
            -14.1,
            -1.65
          ],
          [
            -14.0,
            -1.66667
          ],
          [
            -13.9,
            -1.68333
          ],
          [
            -13.8,
            -1.7
          ],
          [
            -13.7,
            -1.71667
          ],
          [
            -13.6,
            -1.73333
          ],
          [
            -13.5,
            -1.75
          ],
          [
            -13.4,
            -1.76667
          ],
          [
            -13.3,
            -1.78333
          ],
          [
            -13.2,
            -1.8
          ],
          [
            -13.1,
            -1.81667
          ],
          [
            -13.0,
            -1.83333
          ],
          [
            -12.9,
            -1.85
          ],
          [
            -12.8,
            -1.86667
          ],
          [
            -12.7,
            -1.88333
          ],
          [
            -12.6,
            -1.9
          ],
          [
            -12.5,
            -1.91667
          ],
          [
            -12.4,
            -1.93333
          ],
          [
            -12.3,
            -1.95
          ],
          [
            -12.2,
            -1.96667
          ],
          [
            -12.1,
            -1.98333
          ],
          [
            -12.0,
            -2.0
          ],
          [
            -11.9,
            -1.93333
          ],
          [
            -11.8,
            -1.86667
          ],
          [
            -11.7,
            -1.8
          ],
          [
            -11.6,
            -1.73333
          ],
          [
            -11.5,
            -1.66667
          ],
          [
            -11.4,
            -1.6
          ],
          [
            -11.3,
            -1.53333
          ],
          [
            -11.2,
            -1.46667
          ],
          [
            -11.1,
            -1.4
          ],
          [
            -11.0,
            -1.33333
          ],
          [
            -10.9,
            -1.26667
          ],
          [
            -10.8,
            -1.2
          ],
          [
            -10.7,
            -1.13333
          ],
          [
            -10.6,
            -1.06667
          ],
          [
            -10.5,
            -1.0
          ],
          [
            -10.4,
            -0.93333
          ],
          [
            -10.3,
            -0.86667
          ],
          [
            -10.2,
            -0.8
          ],
          [
            -10.1,
            -0.73333
          ],
          [
            -10.0,
            -0.66667
          ],
          [
            -9.9,
            -0.6
          ],
          [
            -9.8,
            -0.53333
          ],
          [
            -9.7,
            -0.46667
          ],
          [
            -9.6,
            -0.4
          ],
          [
            -9.5,
            -0.33333
          ],
          [
            -9.4,
            -0.26667
          ],
          [
            -9.3,
            -0.2
          ],
          [
            -9.2,
            -0.13333
          ],
          [
            -9.1,
            -0.06667
          ],
          [
            -9.0,
            0.0
          ],
          [
            -8.9,
            0.1
          ],
          [
            -8.8,
            0.2
          ],
          [
            -8.7,
            0.3
          ],
          [
            -8.6,
            0.4
          ],
          [
            -8.5,
            0.5
          ],
          [
            -8.4,
            0.6
          ],
          [
            -8.3,
            0.7
          ],
          [
            -8.2,
            0.8
          ],
          [
            -8.1,
            0.9
          ],
          [
            -8.0,
            1.0
          ],
          [
            -7.9,
            1.1
          ],
          [
            -7.8,
            1.2
          ],
          [
            -7.7,
            1.3
          ],
          [
            -7.6,
            1.4
          ],
          [
            -7.5,
            1.5
          ],
          [
            -7.4,
            1.6
          ],
          [
            -7.3,
            1.7
          ],
          [
            -7.2,
            1.8
          ],
          [
            -7.1,
            1.9
          ],
          [
            -7.0,
            2.0
          ],
          [
            -6.9,
            2.1
          ],
          [
            -6.8,
            2.2
          ],
          [
            -6.7,
            2.3
          ],
          [
            -6.6,
            2.4
          ],
          [
            -6.5,
            2.5
          ],
          [
            -6.4,
            2.6
          ],
          [
            -6.3,
            2.7
          ],
          [
            -6.2,
            2.8
          ],
          [
            -6.1,
            2.9
          ],
          [
            -6.0,
            3.0
          ],
          [
            -5.9,
            3.03333
          ],
          [
            -5.8,
            3.06667
          ],
          [
            -5.7,
            3.1
          ],
          [
            -5.6,
            3.13333
          ],
          [
            -5.5,
            3.16667
          ],
          [
            -5.4,
            3.2
          ],
          [
            -5.3,
            3.23333
          ],
          [
            -5.2,
            3.26667
          ],
          [
            -5.1,
            3.3
          ],
          [
            -5.0,
            3.33333
          ],
          [
            -4.9,
            3.36667
          ],
          [
            -4.8,
            3.4
          ],
          [
            -4.7,
            3.43333
          ],
          [
            -4.6,
            3.46667
          ],
          [
            -4.5,
            3.5
          ],
          [
            -4.4,
            3.53333
          ],
          [
            -4.3,
            3.56667
          ],
          [
            -4.2,
            3.6
          ],
          [
            -4.1,
            3.63333
          ],
          [
            -4.0,
            3.66667
          ],
          [
            -3.9,
            3.7
          ],
          [
            -3.8,
            3.73333
          ],
          [
            -3.7,
            3.76667
          ],
          [
            -3.6,
            3.8
          ],
          [
            -3.5,
            3.83333
          ],
          [
            -3.4,
            3.86667
          ],
          [
            -3.3,
            3.9
          ],
          [
            -3.2,
            3.93333
          ],
          [
            -3.1,
            3.96667
          ],
          [
            -3.0,
            4.0
          ],
          [
            -2.9,
            3.95
          ],
          [
            -2.8,
            3.9
          ],
          [
            -2.7,
            3.85
          ],
          [
            -2.6,
            3.8
          ],
          [
            -2.5,
            3.75
          ],
          [
            -2.4,
            3.7
          ],
          [
            -2.3,
            3.65
          ],
          [
            -2.2,
            3.6
          ],
          [
            -2.1,
            3.55
          ],
          [
            -2.0,
            3.5
          ],
          [
            -1.9,
            3.45
          ],
          [
            -1.8,
            3.4
          ],
          [
            -1.7,
            3.35
          ],
          [
            -1.6,
            3.3
          ],
          [
            -1.5,
            3.25
          ],
          [
            -1.4,
            3.2
          ],
          [
            -1.3,
            3.15
          ],
          [
            -1.2,
            3.1
          ],
          [
            -1.1,
            3.05
          ],
          [
            -1.0,
            3.0
          ],
          [
            -0.9,
            2.95
          ],
          [
            -0.8,
            2.9
          ],
          [
            -0.7,
            2.85
          ],
          [
            -0.6,
            2.8
          ],
          [
            -0.5,
            2.75
          ],
          [
            -0.4,
            2.7
          ],
          [
            -0.3,
            2.65
          ],
          [
            -0.2,
            2.6
          ],
          [
            -0.1,
            2.55
          ],
          [
            0.0,
            2.5
          ]
        ]
      }
    }
  ]
}